[Satellite]
VERSION=1.1
NAME=GSAT0205 (GALILEO 9)
NICKNAME=GSAT0205 (GALILEO 9)
TLE1=1 40889U 15045A   17185.02817413 -.00000081  00000-0  00000-0 0  9992
TLE2=2 40889  57.0029 311.6725 0001560  37.6530 322.3485  1.70475282 11268
